LANDSAT 9               
1 49260U 21088A   24209.68584596  .00000707  00000+0  16699-3 0  9995
2 49260  98.2302 278.7752 0001451  91.0766 269.0599 14.57095105150592
